start=new Date('2022-03-16T00:00:00.000Z').valueOf();
sats=[{"INCLINATION":"53.0549","TIME_SYSTEM":"UTC","OBJECT_TYPE":"PAYLOAD","CLASSIFICATION_TYPE":"U","GP_ID":"198847774","REF_FRAME":"TEME","MEAN_MOTION":"15.06390964","RCS_SIZE":"LARGE","ECCENTRICITY":"0.00018050","LAUNCH_DATE":"2021-01-20","BSTAR":"0.00018799000000","REV_AT_EPOCH":"6416","NORAD_CAT_ID":"47385","COUNTRY_CODE":"US","MEAN_MOTION_DDOT":"0.0000000000000","MEAN_ELEMENT_THEORY":"SGP4","PERIAPSIS":"545.991","EPOCH":"2022-03-15T17:20:10.122432","DECAY_DATE":null,"SEMIMAJOR_AXIS":"6925.376","RA_OF_ASC_NODE":"83.2244","MEAN_ANOMALY":"303.1110","ARG_OF_PERICENTER":"57.0053","ELEMENT_SET_NO":"999","EPHEMERIS_TYPE":"0","FILE":"3360930","OBJECT_NAME":"STARLINK-2105","SITE":"AFETR","TLE_LINE2":"2 47385  53.0549  83.2244 0001805  57.0053 303.1110 15.06390964 64161","PERIOD":"95.593","TLE_LINE1":"1 47385U 21005AN  22074.72233938  .00002519  00000-0  18799-3 0  9991","CENTER_NAME":"EARTH","OBJECT_ID":"2021-005AN","MEAN_MOTION_DOT":"0.00002519","APOAPSIS":"548.491"},{"SEMIMAJOR_AXIS":"6925.386","DECAY_DATE":null,"ARG_OF_PERICENTER":"45.0390","RA_OF_ASC_NODE":"83.0940","MEAN_ANOMALY":"315.0763","TLE_LINE1":"1 47386U 21005AP  22074.75182096 -.00002350  00000-0 -13895-3 0  9990","FILE":"3360930","EPHEMERIS_TYPE":"0","OBJECT_NAME":"STARLINK-2106","ELEMENT_SET_NO":"999","PERIOD":"95.593","TLE_LINE2":"2 47386  53.0542  83.0940 0002025  45.0390 315.0763 15.06387755 64173","SITE":"AFETR","MEAN_MOTION_DOT":"-0.00002350","APOAPSIS":"548.653","CENTER_NAME":"EARTH","OBJECT_ID":"2021-005AP","INCLINATION":"53.0542","OBJECT_TYPE":"PAYLOAD","TIME_SYSTEM":"UTC","CLASSIFICATION_TYPE":"U","REV_AT_EPOCH":"6417","NORAD_CAT_ID":"47386","RCS_SIZE":"LARGE","ECCENTRICITY":"0.00020250","MEAN_MOTION":"15.06387755","GP_ID":"198847524","REF_FRAME":"TEME","BSTAR":"-0.00013895000000","LAUNCH_DATE":"2021-01-20","EPOCH":"2022-03-15T18:02:37.330944","PERIAPSIS":"545.849","MEAN_ELEMENT_THEORY":"SGP4","COUNTRY_CODE":"US","MEAN_MOTION_DDOT":"0.0000000000000"},{"LAUNCH_DATE":"2021-01-20","BSTAR":"-0.00029978000000","GP_ID":"198846275","MEAN_MOTION":"15.06396293","REF_FRAME":"TEME","ECCENTRICITY":"0.00015030","RCS_SIZE":"LARGE","NORAD_CAT_ID":"47387","REV_AT_EPOCH":"6375","MEAN_MOTION_DDOT":"0.0000000000000","COUNTRY_CODE":"US","PERIAPSIS":"546.184","MEAN_ELEMENT_THEORY":"SGP4","EPOCH":"2022-03-15T19:18:15.263712","TIME_SYSTEM":"UTC","OBJECT_TYPE":"PAYLOAD","INCLINATION":"53.0526","CLASSIFICATION_TYPE":"U","SITE":"AFETR","TLE_LINE2":"2 47387  53.0526 112.8560 0001503  60.3773 299.7365 15.06396293 63756","PERIOD":"95.592","ELEMENT_SET_NO":"999","FILE":"3360930","EPHEMERIS_TYPE":"0","OBJECT_NAME":"STARLINK-2108","TLE_LINE1":"1 47387U 21005AQ  22074.80434333 -.00004743  00000-0 -29978-3 0  9998","OBJECT_ID":"2021-005AQ","CENTER_NAME":"EARTH","APOAPSIS":"548.266","MEAN_MOTION_DOT":"-0.00004743","DECAY_DATE":null,"SEMIMAJOR_AXIS":"6925.360","MEAN_ANOMALY":"299.7365","RA_OF_ASC_NODE":"112.8560","ARG_OF_PERICENTER":"60.3773"},{"COUNTRY_CODE":"US","MEAN_MOTION_DDOT":"0.0000000000000","EPOCH":"2022-03-15T19:39:29.419200","PERIAPSIS":"545.953","MEAN_ELEMENT_THEORY":"SGP4","RCS_SIZE":"LARGE","ECCENTRICITY":"0.00018820","GP_ID":"198846525","REF_FRAME":"TEME","MEAN_MOTION":"15.06386197","BSTAR":"0.00003325500000","LAUNCH_DATE":"2021-01-20","REV_AT_EPOCH":"6375","NORAD_CAT_ID":"47388","CLASSIFICATION_TYPE":"U","INCLINATION":"53.0526","OBJECT_TYPE":"PAYLOAD","TIME_SYSTEM":"UTC","CENTER_NAME":"EARTH","OBJECT_ID":"2021-005AR","MEAN_MOTION_DOT":"0.00000214","APOAPSIS":"548.559","FILE":"3360930","OBJECT_NAME":"STARLINK-2109","EPHEMERIS_TYPE":"0","ELEMENT_SET_NO":"999","PERIOD":"95.593","TLE_LINE2":"2 47388  53.0526 112.7913 0001882  46.1773 313.9371 15.06386197 63758","SITE":"AFETR","TLE_LINE1":"1 47388U 21005AR  22074.81909050  .00000214  00000-0  33255-4 0  9994","RA_OF_ASC_NODE":"112.7913","MEAN_ANOMALY":"313.9371","ARG_OF_PERICENTER":"46.1773","DECAY_DATE":null,"SEMIMAJOR_AXIS":"6925.391"},{"CENTER_NAME":"EARTH","OBJECT_ID":"2021-005AS","MEAN_MOTION_DOT":"0.00000402","APOAPSIS":"548.168","FILE":"3360930","OBJECT_NAME":"STARLINK-2110","EPHEMERIS_TYPE":"0","ELEMENT_SET_NO":"999","PERIOD":"95.592","TLE_LINE2":"2 47389  53.0555  94.0759 0001417  63.3073 296.8061 15.06408831 63990","SITE":"AFETR","TLE_LINE1":"1 47389U 21005AS  22074.53341642  .00000402  00000-0  45853-4 0  9997","RA_OF_ASC_NODE":"94.0759","MEAN_ANOMALY":"296.8061","ARG_OF_PERICENTER":"63.3073","DECAY_DATE":null,"SEMIMAJOR_AXIS":"6925.321","COUNTRY_CODE":"US","MEAN_MOTION_DDOT":"0.0000000000000","EPOCH":"2022-03-15T12:48:07.178688","PERIAPSIS":"546.205","MEAN_ELEMENT_THEORY":"SGP4","RCS_SIZE":"LARGE","ECCENTRICITY":"0.00014170","REF_FRAME":"TEME","GP_ID":"198847275","MEAN_MOTION":"15.06408831","BSTAR":"0.00004585300000","LAUNCH_DATE":"2021-01-20","REV_AT_EPOCH":"6399","NORAD_CAT_ID":"47389","CLASSIFICATION_TYPE":"U","INCLINATION":"53.0555","OBJECT_TYPE":"PAYLOAD","TIME_SYSTEM":"UTC"},{"DECAY_DATE":null,"SEMIMAJOR_AXIS":"6925.350","RA_OF_ASC_NODE":"112.9009","MEAN_ANOMALY":"297.5619","ARG_OF_PERICENTER":"62.5556","OBJECT_NAME":"STARLINK-2111","FILE":"3360779","EPHEMERIS_TYPE":"0","ELEMENT_SET_NO":"999","TLE_LINE2":"2 47390  53.0543 112.9009 0001828  62.5556 297.5619 15.06399508 63751","PERIOD":"95.592","SITE":"AFETR","TLE_LINE1":"1 47390U 21005AT  22074.79328592 -.00002340  00000-0 -13824-3 0  9993","CENTER_NAME":"EARTH","OBJECT_ID":"2021-005AT","MEAN_MOTION_DOT":"-0.00002340","APOAPSIS":"548.481","INCLINATION":"53.0543","OBJECT_TYPE":"PAYLOAD","TIME_SYSTEM":"UTC","CLASSIFICATION_TYPE":"U","ECCENTRICITY":"0.00018280","RCS_SIZE":"LARGE","GP_ID":"198821250","MEAN_MOTION":"15.06399508","REF_FRAME":"TEME","BSTAR":"-0.00013824000000","LAUNCH_DATE":"2021-01-20","REV_AT_EPOCH":"6375","NORAD_CAT_ID":"47390","COUNTRY_CODE":"US","MEAN_MOTION_DDOT":"0.0000000000000","EPOCH":"2022-03-15T19:02:19.903488","MEAN_ELEMENT_THEORY":"SGP4","PERIAPSIS":"545.949"},{"FILE":"3360930","OBJECT_NAME":"STARLINK-2112","EPHEMERIS_TYPE":"0","ELEMENT_SET_NO":"999","PERIOD":"95.592","TLE_LINE2":"2 47391  53.0566  83.1509 0001840  53.0177 307.0981 15.06397639 64167","SITE":"AFETR","TLE_LINE1":"1 47391U 21005AU  22074.73613246  .00001933  00000-0  14868-3 0  9995","CENTER_NAME":"EARTH","OBJECT_ID":"2021-005AU","MEAN_MOTION_DOT":"0.00001933","APOAPSIS":"548.495","DECAY_DATE":null,"SEMIMAJOR_AXIS":"6925.356","RA_OF_ASC_NODE":"83.1509","MEAN_ANOMALY":"307.0981","ARG_OF_PERICENTER":"53.0177","RCS_SIZE":"LARGE","ECCENTRICITY":"0.00018400","MEAN_MOTION":"15.06397639","GP_ID":"198846775","REF_FRAME":"TEME","BSTAR":"0.00014868000000","LAUNCH_DATE":"2021-01-20","REV_AT_EPOCH":"6416","NORAD_CAT_ID":"47391","COUNTRY_CODE":"US","MEAN_MOTION_DDOT":"0.0000000000000","EPOCH":"2022-03-15T17:40:01.844544","PERIAPSIS":"545.947","MEAN_ELEMENT_THEORY":"SGP4","INCLINATION":"53.0566","OBJECT_TYPE":"PAYLOAD","TIME_SYSTEM":"UTC","CLASSIFICATION_TYPE":"U"},{"EPOCH":"2022-03-15T19:16:55.570944","PERIAPSIS":"545.984","MEAN_ELEMENT_THEORY":"SGP4","MEAN_MOTION_DDOT":"0.0000000000000","COUNTRY_CODE":"US","NORAD_CAT_ID":"47392","REV_AT_EPOCH":"6417","BSTAR":"0.00010341000000","LAUNCH_DATE":"2021-01-20","RCS_SIZE":"LARGE","ECCENTRICITY":"0.00017480","MEAN_MOTION":"15.06406357","GP_ID":"198847025","REF_FRAME":"TEME","CLASSIFICATION_TYPE":"U","OBJECT_TYPE":"PAYLOAD","TIME_SYSTEM":"UTC","INCLINATION":"53.0542","APOAPSIS":"548.405","MEAN_MOTION_DOT":"0.00001259","OBJECT_ID":"2021-005AV","CENTER_NAME":"EARTH","TLE_LINE1":"1 47392U 21005AV  22074.80342096  .00001259  00000-0  10341-3 0  9999","PERIOD":"95.592","TLE_LINE2":"2 47392  53.0542  82.8504 0001748  62.5268 297.5899 15.06406357 64176","SITE":"AFETR","FILE":"3360930","OBJECT_NAME":"STARLINK-2113","EPHEMERIS_TYPE":"0","ELEMENT_SET_NO":"999","ARG_OF_PERICENTER":"62.5268","MEAN_ANOMALY":"297.5899","RA_OF_ASC_NODE":"82.8504","SEMIMAJOR_AXIS":"6925.329","DECAY_DATE":null},{"LAUNCH_DATE":"2021-01-20","BSTAR":"-0.00004460900000","GP_ID":"198847775","REF_FRAME":"TEME","MEAN_MOTION":"15.06377961","RCS_SIZE":"LARGE","ECCENTRICITY":"0.00016410","NORAD_CAT_ID":"47393","REV_AT_EPOCH":"6450","MEAN_MOTION_DDOT":"0.0000000000000","COUNTRY_CODE":"US","MEAN_ELEMENT_THEORY":"SGP4","PERIAPSIS":"546.145","EPOCH":"2022-03-15T15:54:33.137856","TIME_SYSTEM":"UTC","OBJECT_TYPE":"PAYLOAD","INCLINATION":"53.0545","CLASSIFICATION_TYPE":"U","SITE":"AFETR","TLE_LINE2":"2 47393  53.0545  58.4784 0001641  54.0684 306.0457 15.06377961 64500","PERIOD":"95.594","ELEMENT_SET_NO":"999","FILE":"3360930","OBJECT_NAME":"STARLINK-2114","EPHEMERIS_TYPE":"0","TLE_LINE1":"1 47393U 21005AW  22074.66288354 -.00000945  00000-0 -44609-4 0  9998","OBJECT_ID":"2021-005AW","CENTER_NAME":"EARTH","APOAPSIS":"548.418","MEAN_MOTION_DOT":"-0.00000945","DECAY_DATE":null,"SEMIMAJOR_AXIS":"6925.416","MEAN_ANOMALY":"306.0457","RA_OF_ASC_NODE":"58.4784","ARG_OF_PERICENTER":"54.0684"},{"DECAY_DATE":null,"SEMIMAJOR_AXIS":"6925.357","RA_OF_ASC_NODE":"77.8043","MEAN_ANOMALY":"300.0325","ARG_OF_PERICENTER":"60.0863","ELEMENT_SET_NO":"999","EPHEMERIS_TYPE":"0","FILE":"3360930","OBJECT_NAME":"STARLINK-2115","SITE":"AFETR","TLE_LINE2":"2 47394  53.0496  77.8043 0002007  60.0863 300.0325 15.06397134 64256","PERIOD":"95.592","TLE_LINE1":"1 47394U 21005AX  22074.81214491 -.00001400  00000-0 -75117-4 0  9992","CENTER_NAME":"EARTH","OBJECT_ID":"2021-005AX","MEAN_MOTION_DOT":"-0.00001400","APOAPSIS":"548.612","INCLINATION":"53.0496","TIME_SYSTEM":"UTC","OBJECT_TYPE":"PAYLOAD","CLASSIFICATION_TYPE":"U","MEAN_MOTION":"15.06397134","GP_ID":"198847525","REF_FRAME":"TEME","RCS_SIZE":"LARGE","ECCENTRICITY":"0.00020070","LAUNCH_DATE":"2021-01-20","BSTAR":"-0.00007511700000","REV_AT_EPOCH":"6425","NORAD_CAT_ID":"47394","COUNTRY_CODE":"US","MEAN_MOTION_DDOT":"0.0000000000000","MEAN_ELEMENT_THEORY":"SGP4","PERIAPSIS":"545.832","EPOCH":"2022-03-15T19:29:29.320224"}];
